{
  "norad_id": 58946,
  "name": "STARLINK-31331",
  "history": [
    {
      "epoch": "2026-03-28T19:11:36.033504Z",
      "apogee_km": 475.8690074409251,
      "perigee_km": 474.60579347143357,
      "latitude_deg": 3.025004234565487e-05,
      "longitude_deg": 106.77710447643481,
      "height_km": 476.06378037716445,
      "semi_major_axis_km": 6853.3744004561795,
      "eccentricity": 9.216e-05,
      "inclination_deg": 53.1609,
      "raan_deg": 220.8922,
      "arg_perigee_deg": 83.4303,
      "mean_anomaly_deg": 276.6803,
      "mean_motion_rev_day": 15.30192521
    },
    {
      "epoch": "2026-03-29T01:27:49.465152Z",
      "apogee_km": 475.7617885070358,
      "perigee_km": 474.75845116869095,
      "latitude_deg": 5.6238089910298424e-05,
      "longitude_deg": 11.253142509097335,
      "height_km": 476.31831737416843,
      "semi_major_axis_km": 6853.397119837863,
      "eccentricity": 7.32e-05,
      "inclination_deg": 53.1606,
      "raan_deg": 219.6817,
      "arg_perigee_deg": 108.5152,
      "mean_anomaly_deg": 251.5929,
      "mean_motion_rev_day": 15.30184912
    },
    {
      "epoch": "2026-03-30T00:58:36.925824Z",
      "apogee_km": 475.7600503531203,
      "perigee_km": 474.70600204308994,
      "latitude_deg": -4.61968950863124e-05,
      "longitude_deg": 13.036061782112975,
      "height_km": 476.0913788945566,
      "semi_major_axis_km": 6853.370026198105,
      "eccentricity": 7.69e-05,
      "inclination_deg": 53.1604,
      "raan_deg": 215.1281,
      "arg_perigee_deg": 85.5989,
      "mean_anomaly_deg": 274.5099,
      "mean_motion_rev_day": 15.30193986
    },
    {
      "epoch": "2026-03-30T00:58:36.926688Z",
      "apogee_km": 475.76011888682024,
      "perigee_km": 474.70593350939,
      "latitude_deg": -4.711682335220081e-05,
      "longitude_deg": 13.036057486880873,
      "height_km": 476.0913736355675,
      "semi_major_axis_km": 6853.370026198105,
      "eccentricity": 7.691e-05,
      "inclination_deg": 53.1604,
      "raan_deg": 215.1281,
      "arg_perigee_deg": 85.5989,
      "mean_anomaly_deg": 274.5099,
      "mean_motion_rev_day": 15.30193986
    },
    {
      "epoch": "2026-03-30T15:05:06.323424Z",
      "apogee_km": 476.0233771224857,
      "perigee_km": 474.4724561158555,
      "latitude_deg": 7.640145325438901e-07,
      "longitude_deg": 158.1061056593401,
      "height_km": 476.0868206879712,
      "semi_major_axis_km": 6853.38491661917,
      "eccentricity": 0.00011315,
      "inclination_deg": 53.1609,
      "raan_deg": 212.4,
      "arg_perigee_deg": 85.6026,
      "mean_anomaly_deg": 274.5104,
      "mean_motion_rev_day": 15.30188999
    },
    {
      "epoch": "2026-03-30T18:13:12.361440Z",
      "apogee_km": 475.9818507509517,
      "perigee_km": 474.4717805678092,
      "latitude_deg": -2.222506875926024e-05,
      "longitude_deg": 110.34297997362223,
      "height_km": 475.90225251035145,
      "semi_major_axis_km": 6853.363815659381,
      "eccentricity": 0.00011017,
      "inclination_deg": 53.1598,
      "raan_deg": 211.7908,
      "arg_perigee_deg": 72.828,
      "mean_anomaly_deg": 287.2841,
      "mean_motion_rev_day": 15.30196066
    },
    {
      "epoch": "2026-03-31T14:35:54.688704Z",
      "apogee_km": 476.3133901690071,
      "perigee_km": 474.22173109710184,
      "latitude_deg": -5.537788546555496e-05,
      "longitude_deg": 159.89008066421573,
      "height_km": 476.3576348682404,
      "semi_major_axis_km": 6853.404560633054,
      "eccentricity": 0.0001526,
      "inclination_deg": 53.1624,
      "raan_deg": 207.8512,
      "arg_perigee_deg": 100.5822,
      "mean_anomaly_deg": 259.535,
      "mean_motion_rev_day": 15.3018242
    },
    {
      "epoch": "2026-04-01T14:06:41.885856Z",
      "apogee_km": 477.31317721330925,
      "perigee_km": 473.14633022704675,
      "latitude_deg": 4.881390527004567e-06,
      "longitude_deg": 161.67122290329954,
      "height_km": 476.29665755629924,
      "semi_major_axis_km": 6853.366753720177,
      "eccentricity": 0.000304,
      "inclination_deg": 53.1597,
      "raan_deg": 203.2946,
      "arg_perigee_deg": 94.7215,
      "mean_anomaly_deg": 265.4133,
      "mean_motion_rev_day": 15.30195082
    },
    {
      "epoch": "2026-04-02T13:37:30.232128Z",
      "apogee_km": 476.21261869715,
      "perigee_km": 474.32286087420107,
      "latitude_deg": 1.9476715731980835e-05,
      "longitude_deg": 163.45612964232717,
      "height_km": 476.1641566127133,
      "semi_major_axis_km": 6853.404739785675,
      "eccentricity": 0.00013787,
      "inclination_deg": 53.1645,
      "raan_deg": 198.7466,
      "arg_perigee_deg": 89.8798,
      "mean_anomaly_deg": 270.2361,
      "mean_motion_rev_day": 15.3018236
    },
    {
      "epoch": "2026-04-03T13:08:20.130144Z",
      "apogee_km": 477.26724514669786,
      "perigee_km": 473.43367840007977,
      "latitude_deg": 1.4680253887190536e-05,
      "longitude_deg": 165.2322379924173,
      "height_km": 476.7098480587973,
      "semi_major_axis_km": 6853.4874617733885,
      "eccentricity": 0.00027968,
      "inclination_deg": 53.1604,
      "raan_deg": 194.1963,
      "arg_perigee_deg": 103.991,
      "mean_anomaly_deg": 256.1402,
      "mean_motion_rev_day": 15.30154656
    },
    {
      "epoch": "2026-04-04T15:47:12.716448Z",
      "apogee_km": 476.5885023924375,
      "perigee_km": 473.97460855537975,
      "latitude_deg": -7.157716288089114e-06,
      "longitude_deg": 119.25811942888373,
      "height_km": 475.9593141893678,
      "semi_major_axis_km": 6853.418555473908,
      "eccentricity": 0.0001907,
      "inclination_deg": 53.1614,
      "raan_deg": 189.0357,
      "arg_perigee_deg": 80.3269,
      "mean_anomaly_deg": 279.7947,
      "mean_motion_rev_day": 15.30177733
    },
    {
      "epoch": "2026-04-05T12:09:55.805760Z",
      "apogee_km": 476.2581091171596,
      "perigee_km": 474.4790761354261,
      "latitude_deg": -2.944714567746852e-05,
      "longitude_deg": 168.80114194987038,
      "height_km": 476.3736041292011,
      "semi_major_axis_km": 6853.505592626293,
      "eccentricity": 0.00012979,
      "inclination_deg": 53.1594,
      "raan_deg": 185.0952,
      "arg_perigee_deg": 96.9117,
      "mean_anomaly_deg": 263.2031,
      "mean_motion_rev_day": 15.30148584
    },
    {
      "epoch": "2026-04-06T05:24:29.248992Z",
      "apogee_km": 476.1471200994256,
      "perigee_km": 474.2235295892897,
      "latitude_deg": 1.6642445891053704e-06,
      "longitude_deg": -93.88391248198998,
      "height_km": 476.25637432007477,
      "semi_major_axis_km": 6853.322324844357,
      "eccentricity": 0.00014034,
      "inclination_deg": 53.1611,
      "raan_deg": 181.7576,
      "arg_perigee_deg": 100.3628,
      "mean_anomaly_deg": 259.7531,
      "mean_motion_rev_day": 15.30209962
    },
    {
      "epoch": "2026-04-07T11:11:30.688224Z",
      "apogee_km": 476.01851578121205,
      "perigee_km": 474.5916291417261,
      "latitude_deg": -2.219598786286058e-05,
      "longitude_deg": 172.36999519720783,
      "height_km": 476.3263949529223,
      "semi_major_axis_km": 6853.442072461469,
      "eccentricity": 0.0001041,
      "inclination_deg": 53.1619,
      "raan_deg": 175.9907,
      "arg_perigee_deg": 99.905,
      "mean_anomaly_deg": 260.2068,
      "mean_motion_rev_day": 15.30169857
    },
    {
      "epoch": "2026-04-08T13:50:25.775808Z",
      "apogee_km": 476.4159592861515,
      "perigee_km": 474.4165036663999,
      "latitude_deg": 3.2507368827450696e-05,
      "longitude_deg": 126.38618043648658,
      "height_km": 476.60738205325015,
      "semi_major_axis_km": 6853.553231476275,
      "eccentricity": 0.00014587,
      "inclination_deg": 53.1615,
      "raan_deg": 170.8308,
      "arg_perigee_deg": 107.0498,
      "mean_anomaly_deg": 253.0663,
      "mean_motion_rev_day": 15.3013263
    },
    {
      "epoch": "2026-04-09T11:47:08.873088Z",
      "apogee_km": 475.8471158941975,
      "perigee_km": 474.6532558464187,
      "latitude_deg": -5.436243605104409e-06,
      "longitude_deg": 152.06001578943426,
      "height_km": 476.3443619244055,
      "semi_major_axis_km": 6853.387185870308,
      "eccentricity": 8.71e-05,
      "inclination_deg": 53.1599,
      "raan_deg": 166.5855,
      "arg_perigee_deg": 109.1197,
      "mean_anomaly_deg": 250.9898,
      "mean_motion_rev_day": 15.30188239
    },
    {
      "epoch": "2026-04-11T20:13:03.834336Z",
      "apogee_km": 475.916180260333,
      "perigee_km": 474.55098883989103,
      "latitude_deg": -2.320037421074379e-05,
      "longitude_deg": 12.343715012932165,
      "height_km": 476.0651790670323,
      "semi_major_axis_km": 6853.370584550112,
      "eccentricity": 9.96e-05,
      "inclination_deg": 53.1603,
      "raan_deg": 155.6658,
      "arg_perigee_deg": 84.3762,
      "mean_anomaly_deg": 275.7352,
      "mean_motion_rev_day": 15.30193799
    },
    {
      "epoch": "2026-04-13T03:34:07.692096Z",
      "apogee_km": 475.959628941293,
      "perigee_km": 474.49766898105645,
      "latitude_deg": 4.7801866326117085e-08,
      "longitude_deg": -105.27758509384465,
      "height_km": 475.96851845649786,
      "semi_major_axis_km": 6853.365648961175,
      "eccentricity": 0.00010666,
      "inclination_deg": 53.1608,
      "raan_deg": 149.5981,
      "arg_perigee_deg": 77.4687,
      "mean_anomaly_deg": 282.6433,
      "mean_motion_rev_day": 15.30195452
    },
    {
      "epoch": "2026-04-14T09:21:08.502336Z",
      "apogee_km": 476.00794705963654,
      "perigee_km": 474.45661838879914,
      "latitude_deg": -2.3128732032274857e-05,
      "longitude_deg": 160.98255544890665,
      "height_km": 475.9622376523023,
      "semi_major_axis_km": 6853.369282724218,
      "eccentricity": 0.00011318,
      "inclination_deg": 53.1611,
      "raan_deg": 143.8348,
      "arg_perigee_deg": 77.4559,
      "mean_anomaly_deg": 282.6568,
      "mean_motion_rev_day": 15.30194235
    },
    {
      "epoch": "2026-04-15T08:51:56.276640Z",
      "apogee_km": 476.0434874098346,
      "perigee_km": 474.41389411588443,
      "latitude_deg": 1.3918277412782691e-05,
      "longitude_deg": 162.76666939816025,
      "height_km": 475.9547258722685,
      "semi_major_axis_km": 6853.365690762859,
      "eccentricity": 0.00011889,
      "inclination_deg": 53.1592,
      "raan_deg": 139.2836,
      "arg_perigee_deg": 77.8062,
      "mean_anomaly_deg": 282.3072,
      "mean_motion_rev_day": 15.30195438
    },
    {
      "epoch": "2026-04-16T19:21:06.835104Z",
      "apogee_km": 476.07067373447444,
      "perigee_km": 474.40256259581383,
      "latitude_deg": -6.279427356495733e-05,
      "longitude_deg": -2.617779196384251,
      "height_km": 475.9529897346133,
      "semi_major_axis_km": 6853.373618165144,
      "eccentricity": 0.0001217,
      "inclination_deg": 53.1607,
      "raan_deg": 132.6095,
      "arg_perigee_deg": 77.403,
      "mean_anomaly_deg": 282.7106,
      "mean_motion_rev_day": 15.30192783
    }
  ]
}